start=new Date('2022-09-07T00:00:00.000Z').valueOf();
sats=[{"REF_FRAME":"TEME","DECAY_DATE":null,"OBJECT_ID":"2022-077G","MEAN_MOTION_DOT":"0.00068706","BSTAR":"0.00530500000000","GP_ID":"211924509","EPHEMERIS_TYPE":"0","MEAN_ANOMALY":"357.5496","CLASSIFICATION_TYPE":"U","FILE":"3561419","RCS_SIZE":"LARGE","TLE_LINE1":"1 53049U 22077G   22249.91667824  .00068706  00000-0  53050-2 0  9993","PERIAPSIS":"561.457","OBJECT_TYPE":"PAYLOAD","COUNTRY_CODE":"US","RA_OF_ASC_NODE":"70.0409","MEAN_MOTION_DDOT":"0.0000000000000","SITE":"AFWTR","PERIOD":"95.921","CENTER_NAME":"EARTH","ARG_OF_PERICENTER":"68.0280","REV_AT_EPOCH":"130","TLE_LINE2":"2 53049  97.6596  70.0409 0002345  68.0280 357.5496 15.01236284  1308","LAUNCH_DATE":"2022-07-11","EPOCH":"2022-09-06T22:00:00.999936","APOAPSIS":"564.713","ELEMENT_SET_NO":"999","SEMIMAJOR_AXIS":"6941.220","TIME_SYSTEM":"UTC","INCLINATION":"97.6596","MEAN_ELEMENT_THEORY":"SGP4","NORAD_CAT_ID":"53049","OBJECT_NAME":"STARLINK-4345","ECCENTRICITY":"0.00023450","MEAN_MOTION":"15.01236284"},{"REF_FRAME":"TEME","OBJECT_ID":"2022-077H","MEAN_MOTION_DOT":"0.00068073","DECAY_DATE":null,"EPHEMERIS_TYPE":"0","BSTAR":"0.00525950000000","GP_ID":"211923427","MEAN_ANOMALY":"331.3683","RCS_SIZE":"LARGE","CLASSIFICATION_TYPE":"U","FILE":"3561419","OBJECT_TYPE":"PAYLOAD","TLE_LINE1":"1 53050U 22077H   22249.91667824  .00068073  00000-0  52595-2 0  9995","PERIAPSIS":"561.830","COUNTRY_CODE":"US","RA_OF_ASC_NODE":"70.0418","SITE":"AFWTR","PERIOD":"95.922","CENTER_NAME":"EARTH","ARG_OF_PERICENTER":"75.5971","REV_AT_EPOCH":"130","MEAN_MOTION_DDOT":"0.0000000000000","EPOCH":"2022-09-06T22:00:00.999936","LAUNCH_DATE":"2022-07-11","TLE_LINE2":"2 53050  97.6591  70.0418 0001897  75.5971 331.3683 15.01216151  1305","APOAPSIS":"564.464","TIME_SYSTEM":"UTC","ELEMENT_SET_NO":"999","SEMIMAJOR_AXIS":"6941.282","INCLINATION":"97.6591","MEAN_ELEMENT_THEORY":"SGP4","NORAD_CAT_ID":"53050","OBJECT_NAME":"STARLINK-4343","ECCENTRICITY":"0.00018970","MEAN_MOTION":"15.01216151"},{"MEAN_MOTION":"15.01238820","ECCENTRICITY":"0.00021330","OBJECT_NAME":"STARLINK-4336","NORAD_CAT_ID":"53051","MEAN_ELEMENT_THEORY":"SGP4","INCLINATION":"97.6592","SEMIMAJOR_AXIS":"6941.212","ELEMENT_SET_NO":"999","TIME_SYSTEM":"UTC","APOAPSIS":"564.558","TLE_LINE2":"2 53051  97.6592  70.0415 0002133  75.4691   1.4161 15.01238820  1309","LAUNCH_DATE":"2022-07-11","EPOCH":"2022-09-06T22:00:00.999936","MEAN_MOTION_DDOT":"0.0000000000000","REV_AT_EPOCH":"130","ARG_OF_PERICENTER":"75.4691","SITE":"AFWTR","CENTER_NAME":"EARTH","PERIOD":"95.921","RA_OF_ASC_NODE":"70.0415","COUNTRY_CODE":"US","PERIAPSIS":"561.597","TLE_LINE1":"1 53051U 22077J   22249.91667824  .00069131  00000-0  53372-2 0  9996","OBJECT_TYPE":"PAYLOAD","FILE":"3561419","CLASSIFICATION_TYPE":"U","RCS_SIZE":"LARGE","MEAN_ANOMALY":"1.4161","GP_ID":"211923735","BSTAR":"0.00533720000000","EPHEMERIS_TYPE":"0","DECAY_DATE":null,"MEAN_MOTION_DOT":"0.00069131","OBJECT_ID":"2022-077J","REF_FRAME":"TEME"},{"RCS_SIZE":"LARGE","CLASSIFICATION_TYPE":"U","FILE":"3561419","COUNTRY_CODE":"US","OBJECT_TYPE":"PAYLOAD","TLE_LINE1":"1 53052U 22077K   22249.91667824  .00068471  00000-0  52874-2 0  9999","PERIAPSIS":"561.519","OBJECT_ID":"2022-077K","MEAN_MOTION_DOT":"0.00068471","DECAY_DATE":null,"REF_FRAME":"TEME","MEAN_ANOMALY":"344.5882","EPHEMERIS_TYPE":"0","BSTAR":"0.00528740000000","GP_ID":"211923582","INCLINATION":"97.6586","NORAD_CAT_ID":"53052","MEAN_ELEMENT_THEORY":"SGP4","TIME_SYSTEM":"UTC","SEMIMAJOR_AXIS":"6941.226","ELEMENT_SET_NO":"999","ECCENTRICITY":"0.00022650","MEAN_MOTION":"15.01234187","OBJECT_NAME":"STARLINK-4341","CENTER_NAME":"EARTH","SITE":"AFWTR","PERIOD":"95.921","ARG_OF_PERICENTER":"72.3122","REV_AT_EPOCH":"130","MEAN_MOTION_DDOT":"0.0000000000000","RA_OF_ASC_NODE":"70.0401","APOAPSIS":"564.664","LAUNCH_DATE":"2022-07-11","EPOCH":"2022-09-06T22:00:00.999936","TLE_LINE2":"2 53052  97.6586  70.0401 0002265  72.3122 344.5882 15.01234187  1302"},{"RCS_SIZE":"LARGE","FILE":"3561419","CLASSIFICATION_TYPE":"U","COUNTRY_CODE":"US","OBJECT_TYPE":"PAYLOAD","PERIAPSIS":"561.813","TLE_LINE1":"1 53053U 22077L   22249.91667824  .00069237  00000-0  53469-2 0  9992","MEAN_MOTION_DOT":"0.00069237","OBJECT_ID":"2022-077L","DECAY_DATE":null,"REF_FRAME":"TEME","MEAN_ANOMALY":"21.7052","EPHEMERIS_TYPE":"0","GP_ID":"211924304","BSTAR":"0.00534690000000","NORAD_CAT_ID":"53053","MEAN_ELEMENT_THEORY":"SGP4","INCLINATION":"97.6583","TIME_SYSTEM":"UTC","ELEMENT_SET_NO":"999","SEMIMAJOR_AXIS":"6941.248","MEAN_MOTION":"15.01227345","ECCENTRICITY":"0.00018720","OBJECT_NAME":"STARLINK-4337","REV_AT_EPOCH":"130","ARG_OF_PERICENTER":"75.2439","PERIOD":"95.922","SITE":"AFWTR","CENTER_NAME":"EARTH","MEAN_MOTION_DDOT":"0.0000000000000","RA_OF_ASC_NODE":"70.0406","APOAPSIS":"564.412","LAUNCH_DATE":"2022-07-11","EPOCH":"2022-09-06T22:00:00.999936","TLE_LINE2":"2 53053  97.6583  70.0406 0001872  75.2439  21.7052 15.01227345  1302"},{"DECAY_DATE":null,"MEAN_MOTION_DOT":"0.00069023","OBJECT_ID":"2022-077M","REF_FRAME":"TEME","MEAN_ANOMALY":"355.3720","GP_ID":"211923841","BSTAR":"0.00532860000000","EPHEMERIS_TYPE":"0","FILE":"3561419","CLASSIFICATION_TYPE":"U","RCS_SIZE":"LARGE","COUNTRY_CODE":"US","PERIAPSIS":"561.362","TLE_LINE1":"1 53054U 22077M   22249.91667824  .00069023  00000-0  53286-2 0  9993","OBJECT_TYPE":"PAYLOAD","MEAN_MOTION_DDOT":"0.0000000000000","ARG_OF_PERICENTER":"71.5187","REV_AT_EPOCH":"130","SITE":"AFWTR","PERIOD":"95.921","CENTER_NAME":"EARTH","RA_OF_ASC_NODE":"70.0418","APOAPSIS":"564.782","TLE_LINE2":"2 53054  97.6579  70.0418 0002463  71.5187 355.3720 15.01240484  1304","EPOCH":"2022-09-06T22:00:00.999936","LAUNCH_DATE":"2022-07-11","NORAD_CAT_ID":"53054","MEAN_ELEMENT_THEORY":"SGP4","INCLINATION":"97.6579","ELEMENT_SET_NO":"999","SEMIMAJOR_AXIS":"6941.207","TIME_SYSTEM":"UTC","MEAN_MOTION":"15.01240484","ECCENTRICITY":"0.00024630","OBJECT_NAME":"STARLINK-4339"},{"FILE":"3561419","CLASSIFICATION_TYPE":"U","RCS_SIZE":"LARGE","PERIAPSIS":"561.692","TLE_LINE1":"1 53055U 22077N   22249.91667824  .00069702  00000-0  53817-2 0  9998","OBJECT_TYPE":"PAYLOAD","COUNTRY_CODE":"US","REF_FRAME":"TEME","DECAY_DATE":null,"MEAN_MOTION_DOT":"0.00069702","OBJECT_ID":"2022-077N","GP_ID":"211924148","BSTAR":"0.00538170000000","EPHEMERIS_TYPE":"0","MEAN_ANOMALY":"32.2554","SEMIMAJOR_AXIS":"6941.232","ELEMENT_SET_NO":"999","TIME_SYSTEM":"UTC","NORAD_CAT_ID":"53055","MEAN_ELEMENT_THEORY":"SGP4","INCLINATION":"97.6580","OBJECT_NAME":"STARLINK-4338","MEAN_MOTION":"15.01232230","ECCENTRICITY":"0.00020250","RA_OF_ASC_NODE":"70.0394","MEAN_MOTION_DDOT":"0.0000000000000","ARG_OF_PERICENTER":"74.6305","REV_AT_EPOCH":"130","PERIOD":"95.921","SITE":"AFWTR","CENTER_NAME":"EARTH","TLE_LINE2":"2 53055  97.6580  70.0394 0002025  74.6305  32.2554 15.01232230  1306","EPOCH":"2022-09-06T22:00:00.999936","LAUNCH_DATE":"2022-07-11","APOAPSIS":"564.503"},{"MEAN_ELEMENT_THEORY":"SGP4","NORAD_CAT_ID":"53056","INCLINATION":"97.6591","ELEMENT_SET_NO":"999","SEMIMAJOR_AXIS":"6941.244","TIME_SYSTEM":"UTC","MEAN_MOTION":"15.01228496","ECCENTRICITY":"0.00020530","OBJECT_NAME":"STARLINK-4314","MEAN_MOTION_DDOT":"0.0000000000000","ARG_OF_PERICENTER":"79.9173","REV_AT_EPOCH":"130","SITE":"AFWTR","PERIOD":"95.921","CENTER_NAME":"EARTH","RA_OF_ASC_NODE":"70.0419","APOAPSIS":"564.534","TLE_LINE2":"2 53056  97.6591  70.0419 0002053  79.9173   7.0355 15.01228496  1307","LAUNCH_DATE":"2022-07-11","EPOCH":"2022-09-06T22:00:00.999936","FILE":"3561419","CLASSIFICATION_TYPE":"U","RCS_SIZE":"LARGE","COUNTRY_CODE":"US","PERIAPSIS":"561.684","TLE_LINE1":"1 53056U 22077P   22249.91667824  .00069103  00000-0  53365-2 0  9992","OBJECT_TYPE":"PAYLOAD","DECAY_DATE":null,"MEAN_MOTION_DOT":"0.00069103","OBJECT_ID":"2022-077P","REF_FRAME":"TEME","MEAN_ANOMALY":"7.0355","GP_ID":"211923995","BSTAR":"0.00533650000000","EPHEMERIS_TYPE":"0"},{"RCS_SIZE":"LARGE","CLASSIFICATION_TYPE":"U","FILE":"3561419","OBJECT_TYPE":"PAYLOAD","TLE_LINE1":"1 53057U 22077Q   22249.91667824  .00070449  00000-0  54401-2 0  9990","PERIAPSIS":"561.814","COUNTRY_CODE":"US","REF_FRAME":"TEME","OBJECT_ID":"2022-077Q","MEAN_MOTION_DOT":"0.00070449","DECAY_DATE":null,"EPHEMERIS_TYPE":"0","BSTAR":"0.00544010000000","GP_ID":"211924510","MEAN_ANOMALY":"38.3422","TIME_SYSTEM":"UTC","ELEMENT_SET_NO":"999","SEMIMAJOR_AXIS":"6941.261","INCLINATION":"97.6573","MEAN_ELEMENT_THEORY":"SGP4","NORAD_CAT_ID":"53057","OBJECT_NAME":"STARLINK-4252","ECCENTRICITY":"0.00018910","MEAN_MOTION":"15.01222858","RA_OF_ASC_NODE":"70.0389","SITE":"AFWTR","CENTER_NAME":"EARTH","PERIOD":"95.922","ARG_OF_PERICENTER":"88.6017","REV_AT_EPOCH":"130","MEAN_MOTION_DDOT":"0.0000000000000","LAUNCH_DATE":"2022-07-11","EPOCH":"2022-09-06T22:00:00.999936","TLE_LINE2":"2 53057  97.6573  70.0389 0001891  88.6017  38.3422 15.01222858  1305","APOAPSIS":"564.439"},{"GP_ID":"211923428","BSTAR":"0.00538510000000","EPHEMERIS_TYPE":"0","MEAN_ANOMALY":"41.9278","REF_FRAME":"TEME","DECAY_DATE":null,"MEAN_MOTION_DOT":"0.00069730","OBJECT_ID":"2022-077R","PERIAPSIS":"561.892","TLE_LINE1":"1 53058U 22077R   22249.91667824  .00069730  00000-0  53851-2 0  9990","OBJECT_TYPE":"PAYLOAD","COUNTRY_CODE":"US","FILE":"3561419","CLASSIFICATION_TYPE":"U","RCS_SIZE":"LARGE","TLE_LINE2":"2 53058  97.6580  70.0398 0001775  63.6694  41.9278 15.01223675  1306","LAUNCH_DATE":"2022-07-11","EPOCH":"2022-09-06T22:00:00.999936","APOAPSIS":"564.356","RA_OF_ASC_NODE":"70.0398","MEAN_MOTION_DDOT":"0.0000000000000","REV_AT_EPOCH":"130","ARG_OF_PERICENTER":"63.6694","CENTER_NAME":"EARTH","SITE":"AFWTR","PERIOD":"95.922","OBJECT_NAME":"STARLINK-4317","MEAN_MOTION":"15.01223675","ECCENTRICITY":"0.00017750","SEMIMAJOR_AXIS":"6941.259","ELEMENT_SET_NO":"999","TIME_SYSTEM":"UTC","MEAN_ELEMENT_THEORY":"SGP4","NORAD_CAT_ID":"53058","INCLINATION":"97.6580"}];
